STARLINK-3182           
1 51469U 22010P   26078.83102097 -.00000009  00000+0  17528-4 0  9999
2 51469  53.2168 233.5933 0001303  94.9879 265.1262 15.08836955228357
STARLINK-3415           
1 51472U 22010S   26078.80622445  .00001027  00000+0  82631-4 0  9991
2 51472  53.2164 233.6389 0001334  92.2841 267.8304 15.08827641228355
STARLINK-3528           
1 51714U 22016A   26078.94513692 -.00000128  00000+0  10049-4 0  9990
2 51714  53.2165 283.0601 0001320  92.0071 268.1072 15.08834873224974
STARLINK-3533           
1 51715U 22016B   26079.26899864  .00002107  00000+0  15046-3 0  9994
2 51715  53.2176 281.6390 0001570  80.0227 280.0942 15.08830543226154
STARLINK-3543           
1 51716U 22016C   26079.27539592  .00001290  00000+0  99169-4 0  9996
2 51716  53.2170 281.6022 0001282  93.9423 266.1716 15.08831963225028
STARLINK-3445           
1 51717U 22016D   26078.88260829  .00001262  00000+0  97410-4 0  9993
2 51717  53.2174 283.4522 0001708 103.5743 256.5439 15.08829511224967
STARLINK-3546           
1 51718U 22016E   26078.82451782  .00026357  00000+0  13750-2 0  9993
2 51718  53.2125 280.4615 0001318 347.9458  12.1505 15.15793724226122
STARLINK-3540           
1 51719U 22016F   26079.27171104  .00000338  00000+0  39350-4 0  9998
2 51719  53.2170 281.6953 0001537  86.5239 273.5929 15.08841913225024
STARLINK-3526           
1 51720U 22016G   26079.25057526  .00000301  00000+0  36995-4 0  9991
2 51720  53.2169 281.6820 0001289  94.1743 265.9396 15.08847840225013
STARLINK-3524           
1 51721U 22016H   26079.26162370  .00000005  00000+0  18433-4 0  9995
2 51721  53.2173 281.6719 0001417  88.7479 271.3675 15.08833886225021
STARLINK-3535           
1 51722U 22016J   26078.84851451  .00000866  00000+0  72475-4 0  9995
2 51722  53.2176 283.5168 0001178  99.2329 260.8796 15.08839700224958
STARLINK-3529           
1 51724U 22016L   26078.97363763  .00001102  00000+0  87352-4 0  9999
2 51724  53.2179 282.9542 0001561 106.7310 253.3854 15.08839716224973
STARLINK-3522           
1 51725U 22016M   26079.24961395  .00001881  00000+0  13621-3 0  9997
2 51725  53.2157 281.7127 0001333  69.6271 290.4864 15.08838362225011
STARLINK-3527           
1 51726U 22016N   26078.81489037  .00003783  00000+0  25435-3 0  9997
2 51726  53.2158 273.6520 0001288 108.0030 252.1102 15.09029028225090
STARLINK-3532           
1 51727U 22016P   26078.97729524  .00000654  00000+0  59177-4 0  9998
2 51727  53.2173 282.9378 0001422  92.6018 267.5137 15.08846839224976
STARLINK-3523           
1 51729U 22016R   26078.81997487 -.00000548  00000+0 -16331-4 0  9997
2 51729  53.2170 273.6451 0001395  91.9493 268.1659 15.08844161225098
