[{"OBJECT_NAME":"STARLINK-3182","OBJECT_ID":"2022-010P","EPOCH":"2026-03-19T19:56:40.211808","MEAN_MOTION":15.08836955,"ECCENTRICITY":0.00013034,"INCLINATION":53.2168,"RA_OF_ASC_NODE":233.5933,"ARG_OF_PERICENTER":94.9879,"MEAN_ANOMALY":265.1262,"EPHEMERIS_TYPE":0,"CLASSIFICATION_TYPE":"U","NORAD_CAT_ID":51469,"ELEMENT_SET_NO":999,"REV_AT_EPOCH":22835,"BSTAR":1.7527556e-5,"MEAN_MOTION_DOT":-9.0e-8,"MEAN_MOTION_DDOT":0},{"OBJECT_NAME":"STARLINK-3415","OBJECT_ID":"2022-010S","EPOCH":"2026-03-19T19:20:57.792480","MEAN_MOTION":15.08827641,"ECCENTRICITY":0.00013342,"INCLINATION":53.2164,"RA_OF_ASC_NODE":233.6389,"ARG_OF_PERICENTER":92.2841,"MEAN_ANOMALY":267.8304,"EPHEMERIS_TYPE":0,"CLASSIFICATION_TYPE":"U","NORAD_CAT_ID":51472,"ELEMENT_SET_NO":999,"REV_AT_EPOCH":22835,"BSTAR":8.2631435e-5,"MEAN_MOTION_DOT":1.027e-5,"MEAN_MOTION_DDOT":0},{"OBJECT_NAME":"STARLINK-3528","OBJECT_ID":"2022-016A","EPOCH":"2026-03-19T22:40:59.829888","MEAN_MOTION":15.08834873,"ECCENTRICITY":0.000132,"INCLINATION":53.2165,"RA_OF_ASC_NODE":283.0601,"ARG_OF_PERICENTER":92.0071,"MEAN_ANOMALY":268.1072,"EPHEMERIS_TYPE":0,"CLASSIFICATION_TYPE":"U","NORAD_CAT_ID":51714,"ELEMENT_SET_NO":999,"REV_AT_EPOCH":22497,"BSTAR":1.0049e-5,"MEAN_MOTION_DOT":-1.28e-6,"MEAN_MOTION_DDOT":0},{"OBJECT_NAME":"STARLINK-3533","OBJECT_ID":"2022-016B","EPOCH":"2026-03-20T06:27:21.482496","MEAN_MOTION":15.08830543,"ECCENTRICITY":0.00015705,"INCLINATION":53.2176,"RA_OF_ASC_NODE":281.639,"ARG_OF_PERICENTER":80.0227,"MEAN_ANOMALY":280.0942,"EPHEMERIS_TYPE":0,"CLASSIFICATION_TYPE":"U","NORAD_CAT_ID":51715,"ELEMENT_SET_NO":999,"REV_AT_EPOCH":22615,"BSTAR":0.00015046125,"MEAN_MOTION_DOT":2.107e-5,"MEAN_MOTION_DDOT":0},{"OBJECT_NAME":"STARLINK-3543","OBJECT_ID":"2022-016C","EPOCH":"2026-03-20T06:36:34.207488","MEAN_MOTION":15.08831963,"ECCENTRICITY":0.00012828,"INCLINATION":53.217,"RA_OF_ASC_NODE":281.6022,"ARG_OF_PERICENTER":93.9423,"MEAN_ANOMALY":266.1716,"EPHEMERIS_TYPE":0,"CLASSIFICATION_TYPE":"U","NORAD_CAT_ID":51716,"ELEMENT_SET_NO":999,"REV_AT_EPOCH":22502,"BSTAR":9.9169204e-5,"MEAN_MOTION_DOT":1.29e-5,"MEAN_MOTION_DDOT":0},{"OBJECT_NAME":"STARLINK-3445","OBJECT_ID":"2022-016D","EPOCH":"2026-03-19T21:10:57.356256","MEAN_MOTION":15.08829511,"ECCENTRICITY":0.0001708,"INCLINATION":53.2174,"RA_OF_ASC_NODE":283.4522,"ARG_OF_PERICENTER":103.5743,"MEAN_ANOMALY":256.5439,"EPHEMERIS_TYPE":0,"CLASSIFICATION_TYPE":"U","NORAD_CAT_ID":51717,"ELEMENT_SET_NO":999,"REV_AT_EPOCH":22496,"BSTAR":9.741e-5,"MEAN_MOTION_DOT":1.262e-5,"MEAN_MOTION_DDOT":0},{"OBJECT_NAME":"STARLINK-3546","OBJECT_ID":"2022-016E","EPOCH":"2026-03-19T19:47:18.339648","MEAN_MOTION":15.15793724,"ECCENTRICITY":0.00013185,"INCLINATION":53.2125,"RA_OF_ASC_NODE":280.4615,"ARG_OF_PERICENTER":347.9458,"MEAN_ANOMALY":12.1505,"EPHEMERIS_TYPE":0,"CLASSIFICATION_TYPE":"U","NORAD_CAT_ID":51718,"ELEMENT_SET_NO":999,"REV_AT_EPOCH":22612,"BSTAR":0.0013750173,"MEAN_MOTION_DOT":0.00026357,"MEAN_MOTION_DDOT":0},{"OBJECT_NAME":"STARLINK-3540","OBJECT_ID":"2022-016F","EPOCH":"2026-03-20T06:31:15.833856","MEAN_MOTION":15.08841913,"ECCENTRICITY":0.00015377,"INCLINATION":53.217,"RA_OF_ASC_NODE":281.6953,"ARG_OF_PERICENTER":86.5239,"MEAN_ANOMALY":273.5929,"EPHEMERIS_TYPE":0,"CLASSIFICATION_TYPE":"U","NORAD_CAT_ID":51719,"ELEMENT_SET_NO":999,"REV_AT_EPOCH":22502,"BSTAR":3.9349503e-5,"MEAN_MOTION_DOT":3.38e-6,"MEAN_MOTION_DDOT":0},{"OBJECT_NAME":"STARLINK-3526","OBJECT_ID":"2022-016G","EPOCH":"2026-03-20T06:00:49.702464","MEAN_MOTION":15.0884784,"ECCENTRICITY":0.00012897,"INCLINATION":53.2169,"RA_OF_ASC_NODE":281.682,"ARG_OF_PERICENTER":94.1743,"MEAN_ANOMALY":265.9396,"EPHEMERIS_TYPE":0,"CLASSIFICATION_TYPE":"U","NORAD_CAT_ID":51720,"ELEMENT_SET_NO":999,"REV_AT_EPOCH":22501,"BSTAR":3.6994821e-5,"MEAN_MOTION_DOT":3.01e-6,"MEAN_MOTION_DDOT":0},{"OBJECT_NAME":"STARLINK-3524","OBJECT_ID":"2022-016H","EPOCH":"2026-03-20T06:16:44.287680","MEAN_MOTION":15.08833886,"ECCENTRICITY":0.00014178,"INCLINATION":53.2173,"RA_OF_ASC_NODE":281.6719,"ARG_OF_PERICENTER":88.7479,"MEAN_ANOMALY":271.3675,"EPHEMERIS_TYPE":0,"CLASSIFICATION_TYPE":"U","NORAD_CAT_ID":51721,"ELEMENT_SET_NO":999,"REV_AT_EPOCH":22502,"BSTAR":1.8433472e-5,"MEAN_MOTION_DOT":5.0e-8,"MEAN_MOTION_DDOT":0},{"OBJECT_NAME":"STARLINK-3535","OBJECT_ID":"2022-016J","EPOCH":"2026-03-19T20:21:51.653664","MEAN_MOTION":15.088397,"ECCENTRICITY":0.00011789,"INCLINATION":53.2176,"RA_OF_ASC_NODE":283.5168,"ARG_OF_PERICENTER":99.2329,"MEAN_ANOMALY":260.8796,"EPHEMERIS_TYPE":0,"CLASSIFICATION_TYPE":"U","NORAD_CAT_ID":51722,"ELEMENT_SET_NO":999,"REV_AT_EPOCH":22495,"BSTAR":7.247481e-5,"MEAN_MOTION_DOT":8.66e-6,"MEAN_MOTION_DDOT":0},{"OBJECT_NAME":"STARLINK-3529","OBJECT_ID":"2022-016L","EPOCH":"2026-03-19T23:22:02.291232","MEAN_MOTION":15.08839716,"ECCENTRICITY":0.00015617,"INCLINATION":53.2179,"RA_OF_ASC_NODE":282.9542,"ARG_OF_PERICENTER":106.731,"MEAN_ANOMALY":253.3854,"EPHEMERIS_TYPE":0,"CLASSIFICATION_TYPE":"U","NORAD_CAT_ID":51724,"ELEMENT_SET_NO":999,"REV_AT_EPOCH":22497,"BSTAR":8.7351608e-5,"MEAN_MOTION_DOT":1.102e-5,"MEAN_MOTION_DDOT":0},{"OBJECT_NAME":"STARLINK-3522","OBJECT_ID":"2022-016M","EPOCH":"2026-03-20T05:59:26.645280","MEAN_MOTION":15.08838362,"ECCENTRICITY":0.00013337,"INCLINATION":53.2157,"RA_OF_ASC_NODE":281.7127,"ARG_OF_PERICENTER":69.6271,"MEAN_ANOMALY":290.4864,"EPHEMERIS_TYPE":0,"CLASSIFICATION_TYPE":"U","NORAD_CAT_ID":51725,"ELEMENT_SET_NO":999,"REV_AT_EPOCH":22501,"BSTAR":0.00013621451,"MEAN_MOTION_DOT":1.881e-5,"MEAN_MOTION_DDOT":0},{"OBJECT_NAME":"STARLINK-3527","OBJECT_ID":"2022-016N","EPOCH":"2026-03-19T19:33:26.527968","MEAN_MOTION":15.09029028,"ECCENTRICITY":0.00012882,"INCLINATION":53.2158,"RA_OF_ASC_NODE":273.652,"ARG_OF_PERICENTER":108.003,"MEAN_ANOMALY":252.1102,"EPHEMERIS_TYPE":0,"CLASSIFICATION_TYPE":"U","NORAD_CAT_ID":51726,"ELEMENT_SET_NO":999,"REV_AT_EPOCH":22509,"BSTAR":0.00025435433,"MEAN_MOTION_DOT":3.783e-5,"MEAN_MOTION_DDOT":0},{"OBJECT_NAME":"STARLINK-3532","OBJECT_ID":"2022-016P","EPOCH":"2026-03-19T23:27:18.308736","MEAN_MOTION":15.08846839,"ECCENTRICITY":0.0001422,"INCLINATION":53.2173,"RA_OF_ASC_NODE":282.9378,"ARG_OF_PERICENTER":92.6018,"MEAN_ANOMALY":267.5137,"EPHEMERIS_TYPE":0,"CLASSIFICATION_TYPE":"U","NORAD_CAT_ID":51727,"ELEMENT_SET_NO":999,"REV_AT_EPOCH":22497,"BSTAR":5.9177e-5,"MEAN_MOTION_DOT":6.54e-6,"MEAN_MOTION_DDOT":0},{"OBJECT_NAME":"STARLINK-3523","OBJECT_ID":"2022-016R","EPOCH":"2026-03-19T19:40:45.828768","MEAN_MOTION":15.08844161,"ECCENTRICITY":0.00013959,"INCLINATION":53.217,"RA_OF_ASC_NODE":273.6451,"ARG_OF_PERICENTER":91.9493,"MEAN_ANOMALY":268.1659,"EPHEMERIS_TYPE":0,"CLASSIFICATION_TYPE":"U","NORAD_CAT_ID":51729,"ELEMENT_SET_NO":999,"REV_AT_EPOCH":22509,"BSTAR":-1.6330756e-5,"MEAN_MOTION_DOT":-5.48e-6,"MEAN_MOTION_DDOT":0}]
